CCSDS_OEM_VERS = 2.0
CREATION_DATE  = 2024-05-15T16:14:55.078
ORIGINATOR     = NASA/JSC/FOD/TOPO

META_START
OBJECT_NAME          = ISS
OBJECT_ID            = 1998-067-A
CENTER_NAME          = Earth
REF_FRAME            = EME2000
TIME_SYSTEM          = UTC
START_TIME           = 2024-05-15T12:00:00.000
USEABLE_START_TIME   = 2024-05-15T12:00:00.000
USEABLE_STOP_TIME    = 2024-05-30T12:00:00.000
STOP_TIME            = 2024-05-30T12:00:00.000
META_STOP

COMMENT Source: This file was produced by the TOPO office within FOD at JSC.
COMMENT Units are in kg and m^2
COMMENT MASS=459821.60
COMMENT DRAG_AREA=1510.00
COMMENT DRAG_COEFF=2.60
COMMENT SOLAR_RAD_AREA=0.00
COMMENT SOLAR_RAD_COEFF=0.00
COMMENT Orbits start at the ascending node epoch
COMMENT ISS first asc. node: EPOCH = 2024-05-15T12:40:59.548 $ ORBIT = 1348 $ LAN(DEG) = 53.29888
COMMENT ISS last asc. node : EPOCH = 2024-05-30T11:24:17.141 $ ORBIT = 1580 $ LAN(DEG) = -16.43620
COMMENT Begin sequence of events
COMMENT TRAJECTORY EVENT SUMMARY:
COMMENT 
COMMENT |       EVENT        |       TIG        | ORB |   DV    |   HA    |   HP    |
COMMENT |                    |       GMT        |     |   M/S   |   KM    |   KM    |
COMMENT |                    |                  |     |  (F/S)  |  (NM)   |  (NM)   |
COMMENT =============================================================================
COMMENT  CFT_Launch            142:20:43:11.000             0.0     417.5     406.2
COMMENT                                                    (0.0)   (225.4)   (219.3)
COMMENT 
COMMENT  CFT_Dock              143:22:16:00.000             0.0     417.2     406.1
COMMENT                                                    (0.0)   (225.3)   (219.3)
COMMENT 
COMMENT  GMT145 Reboost #1 Pr  145:14:16:00.000             1.1     416.5     406.4
COMMENT                                                    (3.6)   (224.9)   (219.4)
COMMENT 
COMMENT  GMT145 Reboost #2 Pr  145:22:48:00.000             1.1     416.9     409.9
COMMENT                                                    (3.6)   (225.1)   (221.3)
COMMENT 
COMMENT  86P Undock            149:08:46:30.000             0.0     419.5     410.5
COMMENT                                                    (0.0)   (226.5)   (221.6)
COMMENT 
COMMENT  88P Launch            151:09:43:00.000             0.0     418.7     410.6
COMMENT                                                    (0.0)   (226.1)   (221.7)
COMMENT 
COMMENT =============================================================================
COMMENT End sequence of events
2024-05-27T09:58:30.000 -2923.224738717310 -6061.675908672360 -926.456249895738 4.66462549175111 -1.34813831262873 -5.92917680655771
2024-05-27T10:02:30.000 -1710.845069689660 -6160.456187055270 -2298.239375868510 5.37662279415698 0.52965492935321 -5.43233383676160
2024-05-27T10:06:30.000 -373.889413141610 -5810.725184866730 -3502.241345837760 5.69655515488574 2.36653849824453 -4.53977156980818
2024-05-27T10:10:30.000 990.274939240450 -5038.517999622850 -4450.906997791960 5.60217235992508 4.02888021729652 -3.31771334983225
2024-05-27T10:14:30.000 2282.565714687320 -3900.479298243340 -5075.511489954740 5.10141928290652 5.39675194486455 -1.85580624911138
2024-05-27T10:18:30.000 3409.334834453310 -2479.548845315710 -5330.978273152310 4.23126970387094 6.37217811467665 -0.26025184681688
2024-05-27T10:22:30.000 4289.001817811610 -878.892099772990 -5198.953295179110 3.05468210251547 6.88547520035877 1.35374803947881
2024-05-27T10:26:30.000 4857.792092121720 785.461804439440 -4689.031952310800 1.65624786491915 6.89973931606025 2.86981829487722
2024-05-27T10:30:30.000 5074.266346131460 2392.836502017330 -3838.081436581170 0.13644866174676 6.41337434322573 4.17834871616937
2024-05-27T10:34:30.000 4922.353668572590 3826.475022590440 -2707.715219439540 -1.39497200939274 5.46057355004419 5.18396626301150
2024-05-27T10:38:30.000 4412.673877349620 4981.976612306340 -1380.004513155870 -2.82668385446940 4.10958108893645 5.81266223338012
2024-05-27T10:42:30.000 3581.943079717910 5774.986254356250 48.380862411885 -4.05391623948871 2.45825388819764 6.01763602181412
2024-05-27T10:46:30.000 2490.422832643970 6147.515646380780 1473.225297708030 -4.98652236512497 0.62710113677198 5.78326283027265
2024-05-27T10:50:30.000 1217.531419564410 6072.325076779320 2790.472018917840 -5.55604257143526 -1.24981220262615 5.12650542817797
2024-05-27T10:54:30.000 -144.022944338409 5554.947138871980 3903.944703270300 -5.72088026520353 -3.03520218415084 4.09562908462105
2024-05-27T10:58:30.000 -1495.094445278330 4633.207576993510 4732.437785876640 -5.46928596038772 -4.59890923601772 2.76628060839027
2024-05-27T11:02:30.000 -2737.380199350660 3374.346689084110 5215.614940563150 -4.81990092489281 -5.82748398399133 1.23559787582436
2024-05-27T11:06:30.000 -3780.534200506610 1870.017479648020 5318.305341504670 -3.81994984334539 -6.63205657346954 -0.38511473628045
2024-05-27T11:10:30.000 -4548.643041265070 229.638769071577 5032.974110432360 -2.54175328488093 -6.95429483544589 -1.97821484850535
2024-05-27T11:14:30.000 -4985.668614038650 -1427.450689788670 4380.264614017300 -1.07768882447820 -6.77034695471908 -3.42786380007569
2024-05-27T11:18:30.000 -5059.550022772910 -2980.551112887230 3407.601960457280 0.46596218771679 -6.09290794557687 -4.62808431105456
2024-05-27T11:22:30.000 -4764.650799810020 -4316.384838324510 2185.859109874850 1.97662445846667 -4.97080746727367 -5.49068900586628
2024-05-27T11:26:30.000 -4122.291739205880 -5337.434577436380 804.256930722060 3.34361320005507 -3.48582431740622 -5.95197270872079
2024-05-27T11:30:30.000 -3179.291088807450 -5969.218987578180 -636.173302121547 4.46653198721860 -1.74695748064090 -5.97792116353000
2024-05-27T11:34:30.000 -2004.525113734450 -6165.870004929100 -2030.111376003210 5.26316615945527 0.11790922240935 -5.56703798427756
2024-05-27T11:38:30.000 -683.767206271360 -5913.493271701070 -3275.805459799530 5.67581482749971 1.97195514457213 -4.75033013617519
2024-05-27T11:42:30.000 686.739899676233 -5231.038318575160 -4282.599336832250 5.67540409573848 3.68006005864685 -3.58856849779326
2024-05-27T11:46:30.000 2007.395855696790 -4168.669652873440 -4977.499430106920 5.26309795574769 5.11878419935524 -2.16717356317307
2024-05-27T11:50:30.000 3182.457635794250 -2803.898796838130 -5310.318656172240 4.46958085859399 6.18495327736618 -0.58958417981054
2024-05-27T11:54:30.000 4126.844900410820 -1235.874890915350 -5257.117477265180 3.35245243623659 6.80240681637301 1.03019470209576
2024-05-27T11:58:30.000 4772.125490636780 421.722267924746 -4821.802578934970 1.99204594170287 6.92684986981077 2.57542128443678
2024-05-27T12:02:30.000 5071.356403365640 2048.720979997960 -4035.848650315910 0.48611733691323 6.54884698767271 3.93441272348179
2024-05-27T12:06:30.000 5002.495989853320 3526.996252606260 -2956.144307239710 -1.05676542392460 5.69484474410520 5.00832588673221
2024-05-27T12:10:30.000 4570.125801146890 4748.960079646050 -1661.037404148600 -2.52460087914297 4.42580192103937 5.71830460509725
2024-05-27T12:14:30.000 3805.306234595940 5625.450098830070 -244.771608547410 -3.81013131275829 2.83343991544660 6.01163967265435
2024-05-27T12:18:30.000 2763.454159918030 6092.387734796340 1189.355406971780 -4.81895456885363 1.03380918240839 5.86614326169370
2024-05-27T12:22:30.000 1520.344700116260 6115.621721239600 2536.614343588440 -5.47694873339496 -0.84135315094652 5.29218554100328
2024-05-27T12:26:30.000 166.513471267165 5693.487385860750 3698.623726831430 -5.73600051849453 -2.65481828061428 4.33192735998967
2024-05-27T12:30:30.000 -1199.445197482640 4856.866410704660 4590.615982356290 -5.57744985704998 -4.27430943800847 3.05588225195395
2024-05-27T12:34:30.000 -2478.123826537250 3666.812439842360 5147.604862084260 -5.01315185559644 -5.58216815579933 1.55734249738665
2024-05-27T12:38:30.000 -3576.519445562620 2210.005800972000 5329.049342006810 -4.08424601006226 -6.48375538596139 -0.05457103046092
2024-05-27T12:42:30.000 -4414.716336864870 592.426632612127 5121.703478902930 -2.85798481138431 -6.91376933767155 -1.66283270579120
2024-05-27T12:46:30.000 -4931.613236920160 -1068.261450215180 4540.553629184840 -1.42299936941861 -6.84072238190246 -3.15057754986559
2024-05-27T12:50:30.000 -5089.352411278390 -2651.147595415800 3627.793733605630 0.11674698312696 -6.26924156880507 -4.40926685510168
2024-05-27T12:54:30.000 -4876.170503009890 -4040.807183612310 2449.887799053420 1.64904669031831 -5.24027340654998 -5.34646337501469
2024-05-27T12:58:30.000 -4307.406785145980 -5135.792042156190 1092.822399695290 3.06167266169398 -3.82868967642081 -5.89299315132712
2024-05-27T13:02:30.000 -3424.483056910620 -5856.193622934910 -344.180738316393 4.25090925246837 -2.13800349015459 -6.00850144391874
2024-05-27T13:06:30.000 -2291.877524465320 -6149.623616321780 -1756.031847230770 5.12959525768857 -0.29256557150619 -5.68478083912663
2024-05-27T13:10:30.000 -992.304235704574 -5995.083456527480 -3039.617321013420 5.63388435857680 1.57211912853496 -4.94636470210302
2024-05-27T13:14:30.000 379.481623438389 -5404.384697226470 -4101.449590814120 5.72787715346611 3.31989928746131 -3.84835075745166
2024-05-27T13:18:30.000 1723.719901920400 -4421.057659812850 -4864.480702499500 5.40591264573791 4.82423007282346 -2.47167730251185
2024-05-27T13:22:30.000 2942.909461063490 -3116.940918786800 -5273.560346146330 4.69225142854503 5.97708989355083 -0.91672847046391
2024-05-27T13:26:30.000 3948.758259879750 -1586.846086876370 -5299.234943184580 3.63886213219607 6.69609054605866 0.70401502630631
2024-05-27T13:30:30.000 4668.403489726370 58.263357593403 -4939.727166355190 2.32160234653083 6.92975253388145 2.27370393775545
2024-05-27T13:34:30.000 5049.551412760560 1699.138576959410 -4221.036789815470 0.83506456862065 6.66090568282953 3.67902374581675
